[{"OBJECT_NAME":"ONEWEB-0140","OBJECT_ID":"2020-100AE","EPOCH":"2026-03-09T20:40:17.405184","MEAN_MOTION":13.12442672,"ECCENTRICITY":0.00017198,"INCLINATION":87.9006,"RA_OF_ASC_NODE":10.3531,"ARG_OF_PERICENTER":84.2213,"MEAN_ANOMALY":275.9112,"EPHEMERIS_TYPE":0,"CLASSIFICATION_TYPE":"U","NORAD_CAT_ID":47286,"ELEMENT_SET_NO":999,"REV_AT_EPOCH":25166,"BSTAR":-0.0010584755,"MEAN_MOTION_DOT":-3.68e-6,"MEAN_MOTION_DDOT":0},{"OBJECT_NAME":"CZ-4B DEB","OBJECT_ID":"2011-043D","EPOCH":"2026-03-08T12:35:01.081248","MEAN_MOTION":13.42316105,"ECCENTRICITY":0.0264063,"INCLINATION":99.5263,"RA_OF_ASC_NODE":172.3238,"ARG_OF_PERICENTER":5.7929,"MEAN_ANOMALY":55.6134,"EPHEMERIS_TYPE":0,"CLASSIFICATION_TYPE":"U","NORAD_CAT_ID":38314,"ELEMENT_SET_NO":999,"REV_AT_EPOCH":63464,"BSTAR":0.00035567044,"MEAN_MOTION_DOT":2.05e-6,"MEAN_MOTION_DDOT":0}]
